{
  "type": "FeatureCollection",
  "features": [
    {
      "type": "Feature",
      "properties": {
        "norad_id": 30708,
        "name": "FENGYUN 1C DEB",
        "group": "fengyun-1c-debris",
        "lat": 32.92845323274401,
        "lon": -5.791329984436332,
        "alt_km": 855.4033507146314,
        "timestamp": "2025-12-12T05:47:29.049151+00:00",
        "meta_object_name": "FENGYUN 1C DEB",
        "meta_object_id": "1999-025ARS",
        "meta_epoch": "2025-12-12T00:40:15.881376",
        "meta_mean_motion": 14.12178229,
        "meta_eccentricity": 0.0008025,
        "meta_inclination": 98.6905,
        "meta_ra_of_asc_node": 359.6866,
        "meta_arg_of_pericenter": 196.6553,
        "meta_mean_anomaly": 192.811,
        "meta_ephemeris_type": 0,
        "meta_classification_type": "U",
        "meta_norad_cat_id": 30708,
        "meta_element_set_no": 999,
        "meta_rev_at_epoch": 96826,
        "meta_bstar": 0.00022209818,
        "meta_mean_motion_dot": 3.65e-06,
        "meta_mean_motion_ddot": 0,
        "tle_line1": "1 30708U 99025ARS 25346.02796159  .00000365  00000+0  22210-3 0  9995",
        "tle_line2": "2 30708  98.6905 359.6866 0008025 196.6553 192.8110 14.12178229968260"
      },
      "geometry": {
        "type": "Point",
        "coordinates": [
          -5.791329984436332,
          32.92845323274401
        ]
      }
    },
    {
      "type": "Feature",
      "properties": {
        "norad_id": 30709,
        "name": "FENGYUN 1C DEB",
        "group": "fengyun-1c-debris",
        "lat": 51.379611748059155,
        "lon": -47.44951408284712,
        "alt_km": 875.0899934361187,
        "timestamp": "2025-12-12T05:47:29.049161+00:00",
        "meta_object_name": "FENGYUN 1C DEB",
        "meta_object_id": "1999-025ART",
        "meta_epoch": "2025-12-11T15:59:27.684096",
        "meta_mean_motion": 14.1746036,
        "meta_eccentricity": 0.00826151,
        "meta_inclination": 99.1451,
        "meta_ra_of_asc_node": 323.5918,
        "meta_arg_of_pericenter": 273.2103,
        "meta_mean_anomaly": 85.9621,
        "meta_ephemeris_type": 0,
        "meta_classification_type": "U",
        "meta_norad_cat_id": 30709,
        "meta_element_set_no": 999,
        "meta_rev_at_epoch": 95981,
        "meta_bstar": 0.0041293138,
        "meta_mean_motion_dot": 8.618e-05,
        "meta_mean_motion_ddot": 0,
        "tle_line1": "1 30709U 99025ART 25345.66629264  .00008618  00000+0  41293-2 0  9997",
        "tle_line2": "2 30709  99.1451 323.5918 0082615 273.2103  85.9621 14.17460360959816"
      },
      "geometry": {
        "type": "Point",
        "coordinates": [
          -47.44951408284712,
          51.379611748059155
        ]
      }
    },
    {
      "type": "Feature",
      "properties": {
        "norad_id": 30710,
        "name": "FENGYUN 1C DEB",
        "group": "fengyun-1c-debris",
        "lat": -33.25530680872319,
        "lon": -116.20446855430777,
        "alt_km": 995.111815443528,
        "timestamp": "2025-12-12T05:47:29.049171+00:00",
        "meta_object_name": "FENGYUN 1C DEB",
        "meta_object_id": "1999-025ARU",
        "meta_epoch": "2025-12-11T13:17:01.154976",
        "meta_mean_motion": 13.94132538,
        "meta_eccentricity": 0.02233197,
        "meta_inclination": 102.7457,
        "meta_ra_of_asc_node": 234.3141,
        "meta_arg_of_pericenter": 86.0724,
        "meta_mean_anomaly": 31.5992,
        "meta_ephemeris_type": 0,
        "meta_classification_type": "U",
        "meta_norad_cat_id": 30710,
        "meta_element_set_no": 999,
        "meta_rev_at_epoch": 94772,
        "meta_bstar": 0.0031813803,
        "meta_mean_motion_dot": 5.119e-05,
        "meta_mean_motion_ddot": 0,
        "tle_line1": "1 30710U 99025ARU 25345.55348559  .00005119  00000+0  31814-2 0  9993",
        "tle_line2": "2 30710 102.7457 234.3141 0223319  86.0724  31.5992 13.94132538947721"
      },
      "geometry": {
        "type": "Point",
        "coordinates": [
          -116.20446855430777,
          -33.25530680872319
        ]
      }
    },
    {
      "type": "Feature",
      "properties": {
        "norad_id": 30714,
        "name": "FENGYUN 1C DEB",
        "group": "fengyun-1c-debris",
        "lat": -60.59977689533202,
        "lon": 50.80691527626995,
        "alt_km": 842.5765275311205,
        "timestamp": "2025-12-12T05:47:29.049181+00:00",
        "meta_object_name": "FENGYUN 1C DEB",
        "meta_object_id": "1999-025ARY",
        "meta_epoch": "2025-12-11T20:03:45.983232",
        "meta_mean_motion": 14.03289808,
        "meta_eccentricity": 0.00666417,
        "meta_inclination": 98.8374,
        "meta_ra_of_asc_node": 34.3858,
        "meta_arg_of_pericenter": 285.2442,
        "meta_mean_anomaly": 126.1016,
        "meta_ephemeris_type": 0,
        "meta_classification_type": "U",
        "meta_norad_cat_id": 30714,
        "meta_element_set_no": 999,
        "meta_rev_at_epoch": 95980,
        "meta_bstar": 0.0007647666,
        "meta_mean_motion_dot": 1.174e-05,
        "meta_mean_motion_ddot": 0,
        "tle_line1": "1 30714U 99025ARY 25345.83594888  .00001174  00000+0  76477-3 0  9998",
        "tle_line2": "2 30714  98.8374  34.3858 0066641 285.2442 126.1016 14.03289808959808"
      },
      "geometry": {
        "type": "Point",
        "coordinates": [
          50.80691527626995,
          -60.59977689533202
        ]
      }
    },
    {
      "type": "Feature",
      "properties": {
        "norad_id": 30715,
        "name": "FENGYUN 1C DEB",
        "group": "fengyun-1c-debris",
        "lat": 38.68527768357557,
        "lon": -117.3300964259769,
        "alt_km": 797.5157278796241,
        "timestamp": "2025-12-12T05:47:29.049192+00:00",
        "meta_object_name": "FENGYUN 1C DEB",
        "meta_object_id": "1999-025ARZ",
        "meta_epoch": "2025-12-11T03:39:57.034080",
        "meta_mean_motion": 14.14674714,
        "meta_eccentricity": 0.0067751,
        "meta_inclination": 98.9756,
        "meta_ra_of_asc_node": 54.3053,
        "meta_arg_of_pericenter": 172.6804,
        "meta_mean_anomaly": 187.5374,
        "meta_ephemeris_type": 0,
        "meta_classification_type": "U",
        "meta_norad_cat_id": 30715,
        "meta_element_set_no": 999,
        "meta_rev_at_epoch": 96159,
        "meta_bstar": 0.0026629274,
        "meta_mean_motion_dot": 5.196e-05,
        "meta_mean_motion_ddot": 0,
        "tle_line1": "1 30715U 99025ARZ 25345.15274345  .00005196  00000+0  26629-2 0  9998",
        "tle_line2": "2 30715  98.9756  54.3053 0067751 172.6804 187.5374 14.14674714961590"
      },
      "geometry": {
        "type": "Point",
        "coordinates": [
          -117.3300964259769,
          38.68527768357557
        ]
      }
    },
    {
      "type": "Feature",
      "properties": {
        "norad_id": 30716,
        "name": "FENGYUN 1C DEB",
        "group": "fengyun-1c-debris",
        "lat": -18.42076082337092,
        "lon": -13.730565871548857,
        "alt_km": 642.2204103891709,
        "timestamp": "2025-12-12T05:47:29.049202+00:00",
        "meta_object_name": "FENGYUN 1C DEB",
        "meta_object_id": "1999-025ASA",
        "meta_epoch": "2025-12-11T04:49:08.961024",
        "meta_mean_motion": 14.79212913,
        "meta_eccentricity": 0.00202782,
        "meta_inclination": 98.8725,
        "meta_ra_of_asc_node": 168.1045,
        "meta_arg_of_pericenter": 88.1739,
        "meta_mean_anomaly": 332.3561,
        "meta_ephemeris_type": 0,
        "meta_classification_type": "U",
        "meta_norad_cat_id": 30716,
        "meta_element_set_no": 999,
        "meta_rev_at_epoch": 97801,
        "meta_bstar": 0.0062571674,
        "meta_mean_motion_dot": 0.00046866,
        "meta_mean_motion_ddot": 0,
        "tle_line1": "1 30716U 99025ASA 25345.20079816  .00046866  00000+0  62572-2 0  9997",
        "tle_line2": "2 30716  98.8725 168.1045 0020278  88.1739 332.3561 14.79212913978015"
      },
      "geometry": {
        "type": "Point",
        "coordinates": [
          -13.730565871548857,
          -18.42076082337092
        ]
      }
    },
    {
      "type": "Feature",
      "properties": {
        "norad_id": 30717,
        "name": "FENGYUN 1C DEB",
        "group": "fengyun-1c-debris",
        "lat": 38.19431754275115,
        "lon": -115.8392021957174,
        "alt_km": 836.8414982641561,
        "timestamp": "2025-12-12T05:47:29.049223+00:00",
        "meta_object_name": "FENGYUN 1C DEB",
        "meta_object_id": "1999-025ASB",
        "meta_epoch": "2025-12-10T04:06:03.362400",
        "meta_mean_motion": 14.20517251,
        "meta_eccentricity": 0.00481347,
        "meta_inclination": 99.0168,
        "meta_ra_of_asc_node": 54.8737,
        "meta_arg_of_pericenter": 265.1306,
        "meta_mean_anomaly": 94.4373,
        "meta_ephemeris_type": 0,
        "meta_classification_type": "U",
        "meta_norad_cat_id": 30717,
        "meta_element_set_no": 999,
        "meta_rev_at_epoch": 96500,
        "meta_bstar": 0.001839634,
        "meta_mean_motion_dot": 3.953e-05,
        "meta_mean_motion_ddot": 0,
        "tle_line1": "1 30717U 99025ASB 25344.17087225  .00003953  00000+0  18396-2 0  9991",
        "tle_line2": "2 30717  99.0168  54.8737 0048134 265.1306  94.4373 14.20517251965008"
      },
      "geometry": {
        "type": "Point",
        "coordinates": [
          -115.8392021957174,
          38.19431754275115
        ]
      }
    }
  ]
}